OBJECT_NAME,OBJECT_ID,EPOCH,MEAN_MOTION,ECCENTRICITY,INCLINATION,RA_OF_ASC_NODE,ARG_OF_PERICENTER,MEAN_ANOMALY,EPHEMERIS_TYPE,CLASSIFICATION_TYPE,NORAD_CAT_ID,ELEMENT_SET_NO,REV_AT_EPOCH,BSTAR,MEAN_MOTION_DOT,MEAN_MOTION_DDOT
INNOSAT 3 (RS92S0),2025-155U,2026-06-17T19:56:51.336672,15.43866330,.0006629,97.4490,140.3426,149.6241,210.5392,0,U,64894,999,8106,.7382E-3,.33529E-3,0
KNACKSAT-2,1998-067XZ,2026-06-17T14:33:42.297120,15.60014370,.0009088,51.6314,292.3670,217.1010,142.9356,0,U,67683,999,2034,.49993E-3,.40994E-3,0
