KNACKSAT-2              
1 67683U 98067XZ  26168.60673955  .00040994  00000+0  49993-3 0  9996
2 67683  51.6314 292.3670 0009088 217.1010 142.9356 15.60014370 20344
INNOSAT 3 (RS92S0)      
1 64894U 25155U   26168.83114973  .00033529  00000+0  73820-3 0  9992
2 64894  97.4490 140.3426 0006629 149.6241 210.5392 15.43866330 81062
